[
  {
    "OBJECT_NAME": "EWS-G2 (GOES 15)",
    "OBJECT_ID": "2010-008A",
    "EPOCH": "2025-05-31T14:23:22.119648",
    "MEAN_MOTION": 1.00268357,
    "ECCENTRICITY": 0.0001714,
    "INCLINATION": 0.2896,
    "RA_OF_ASC_NODE": 85.7127,
    "ARG_OF_PERICENTER": 123.0296,
    "MEAN_ANOMALY": 317.9012,
    "EPHEMERIS_TYPE": 0,
    "CLASSIFICATION_TYPE": "U",
    "NORAD_CAT_ID": 36411,
    "ELEMENT_SET_NO": 999,
    "REV_AT_EPOCH": 5581,
    "BSTAR": 0,
    "MEAN_MOTION_DOT": 3.2e-07,
    "MEAN_MOTION_DDOT": 0
  },
  {
    "OBJECT_NAME": "GOES 16",
    "OBJECT_ID": "2016-071A",
    "EPOCH": "2025-05-31T10:07:54.434784",
    "MEAN_MOTION": 1.00124471,
    "ECCENTRICITY": 0.0001371,
    "INCLINATION": 0.0464,
    "RA_OF_ASC_NODE": 258.3763,
    "ARG_OF_PERICENTER": 233.2716,
    "MEAN_ANOMALY": 167.937,
    "EPHEMERIS_TYPE": 0,
    "CLASSIFICATION_TYPE": "U",
    "NORAD_CAT_ID": 41866,
    "ELEMENT_SET_NO": 999,
    "REV_AT_EPOCH": 3127,
    "BSTAR": 0,
    "MEAN_MOTION_DOT": -9.4e-07,
    "MEAN_MOTION_DDOT": 0
  },
  {
    "OBJECT_NAME": "GOES 17",
    "OBJECT_ID": "2018-022A",
    "EPOCH": "2025-05-31T21:07:38.794368",
    "MEAN_MOTION": 1.00271826,
    "ECCENTRICITY": 0.0002771,
    "INCLINATION": 0.0285,
    "RA_OF_ASC_NODE": 181.6815,
    "ARG_OF_PERICENTER": 283.0226,
    "MEAN_ANOMALY": 357.4074,
    "EPHEMERIS_TYPE": 0,
    "CLASSIFICATION_TYPE": "U",
    "NORAD_CAT_ID": 43226,
    "ELEMENT_SET_NO": 999,
    "REV_AT_EPOCH": 2661,
    "BSTAR": 0,
    "MEAN_MOTION_DOT": -9.8e-07,
    "MEAN_MOTION_DDOT": 0
  },
  {
    "OBJECT_NAME": "GOES 18",
    "OBJECT_ID": "2022-021A",
    "EPOCH": "2025-05-31T13:23:24.509184",
    "MEAN_MOTION": 1.00272596,
    "ECCENTRICITY": 1.5e-05,
    "INCLINATION": 0.0352,
    "RA_OF_ASC_NODE": 137.4918,
    "ARG_OF_PERICENTER": 11.6266,
    "MEAN_ANOMALY": 164.0295,
    "EPHEMERIS_TYPE": 0,
    "CLASSIFICATION_TYPE": "U",
    "NORAD_CAT_ID": 51850,
    "ELEMENT_SET_NO": 999,
    "REV_AT_EPOCH": 1197,
    "BSTAR": 0,
    "MEAN_MOTION_DOT": 9.1e-07,
    "MEAN_MOTION_DDOT": 0
  },
  {
    "OBJECT_NAME": "GOES 19",
    "OBJECT_ID": "2024-119A",
    "EPOCH": "2025-05-31T10:39:38.488608",
    "MEAN_MOTION": 1.00269783,
    "ECCENTRICITY": 6.1e-06,
    "INCLINATION": 0.0445,
    "RA_OF_ASC_NODE": 130.6655,
    "ARG_OF_PERICENTER": 39.5272,
    "MEAN_ANOMALY": 163.6825,
    "EPHEMERIS_TYPE": 0,
    "CLASSIFICATION_TYPE": "U",
    "NORAD_CAT_ID": 60133,
    "ELEMENT_SET_NO": 999,
    "REV_AT_EPOCH": 313,
    "BSTAR": 0,
    "MEAN_MOTION_DOT": -2.53e-06,
    "MEAN_MOTION_DDOT": 0
  }
]